YAM-7                   
1 60504U 24149AN  26068.71799904  .00009009  00000+0  30984-3 0  9997
2 60504  97.3828 149.4631 0001973 296.5121  63.5918 15.30304554 86835
STARLINK-34129          
1 64138U 25111R   26068.44603653  .00026847  00000+0  98116-3 0  9999
2 64138  43.0005  79.4557 0001467 268.7528  91.3156 15.27593456 45471
